IRIDIUM 144             
1 43249U 18030A   23273.93623238  .00000456  00000+0  15585-3 0  9998
2 43249  86.4014 344.2863 0001991  92.7986 267.3438 14.34223495288220
IRIDIUM 149             
1 43250U 18030B   23273.45420549  .00000498  00000+0  17062-3 0  9995
2 43250  86.4013 344.4652 0001906  94.5435 265.5979 14.34219012288156
IRIDIUM 157             
1 43251U 18030C   23273.47323546  .00000456  00000+0  15570-3 0  9993
2 43251  86.4015 344.4887 0002415  92.7415 267.4057 14.34216229288136
IRIDIUM 140             
1 43252U 18030D   23274.46901819  .00000492  00000+0  16866-3 0  9998
2 43252  86.4016 344.0879 0001940  88.4618 271.6800 14.34217653288331
IRIDIUM 145             
1 43253U 18030E   23274.17726058  .00000548  00000+0  18844-3 0  9997
2 43253  86.4014 344.1840 0001794  99.1558 260.9841 14.34218725288223
IRIDIUM 146             
1 43254U 18030F   23273.73963306  .00000443  00000+0  15101-3 0  9995
2 43254  86.4014 344.3823 0002009 101.4618 258.6804 14.34217788288176
IRIDIUM 148             
1 43255U 18030G   23273.49860316 -.00000342  00000+0 -12903-3 0  9993
2 43255  86.4009 344.5111 0001939 103.1646 256.9767 14.34218524288183
IRIDIUM 142             
1 43256U 18030H   23274.23433649  .00000404  00000+0  13729-3 0  9996
2 43256  86.4010 344.1292 0002113  97.1154 263.0282 14.34212938288244
